STARLINK-34555          
1 64665U 25139B   25289.67917653  .00031622  00000+0  10743-2 0  9997
2 64665  53.1593  76.0859 0002880  91.1815 268.9516 15.30225567 18139
STARLINK-34390          
1 64666U 25139C   25289.97303921  .00043466  00000+0  14696-2 0  9998
2 64666  53.1585  74.3651 0001144  71.8860 288.2265 15.30232617 18342
STARLINK-34382          
1 64667U 25139D   25289.69501083  .00051190  00000+0  17252-2 0  9991
2 64667  53.1573  76.1856 0001965  87.8955 272.2271 15.30264032 18234
STARLINK-34395          
1 64668U 25139E   25289.68550949  .00038549  00000+0  13057-2 0  9998
2 64668  53.1579  76.1244 0002496  93.9824 266.1462 15.30228714 18236
STARLINK-34394          
1 64669U 25139F   25289.15349417  .00033503  00000+0  11381-2 0  9990
2 64669  53.1594  78.4906 0001757  89.2716 270.8486 15.30203496 18150
STARLINK-34287          
1 64670U 25139G   25290.12688067  .00057229  00000+0  19275-2 0  9999
2 64670  53.1554  73.9015 0000014 293.4116  66.6883 15.30234236 18302
STARLINK-34365          
1 64671U 25139H   25288.84274840  .00023568  00000+0  80500-3 0  9995
2 64671  53.1576  80.1069 0001004  78.3173 281.7941 15.30213086 18168
STARLINK-34442          
1 64672U 25139J   25289.85190612  .00033761  00000+0  11463-2 0  9999
2 64672  53.1586  75.0315 0001174  74.0493 286.0637 15.30213405 18269
STARLINK-34288          
1 64673U 25139K   25290.11949663  .00040469  00000+0  13704-2 0  9992
2 64673  53.1594  73.8565 0001043  80.9103 279.2015 15.30215822 18305
STARLINK-34539          
1 64674U 25139L   25289.84874002  .00020039  00000+0  68689-3 0  9999
2 64674  53.1583  75.0108 0001127  92.8694 267.2436 15.30199289 18167
STARLINK-34590          
1 64675U 25139M   25289.70239271  .00029896  00000+0  10171-2 0  9990
2 64675  53.1578  76.2290 0001423  91.7854 268.3310 15.30210539 18235
STARLINK-34573          
1 64676U 25139N   25289.12078127  .00043505  00000+0  14722-2 0  9997
2 64676  53.1578  78.2880 0001903  86.5094 273.6125 15.30203449 18150
STARLINK-34605          
1 64677U 25139P   25289.68182377  .00087981  00000+0  21795-2 0  9996
2 64677  53.1601  72.5574 0001898  96.2786 263.8435 15.39685404 18287
STARLINK-34525          
1 64678U 25139Q   25289.69711587  .00056041  00000+0  18902-2 0  9998
2 64678  53.1624  76.1903 0001746  87.1961 272.9239 15.30196107 18231
STARLINK-34489          
1 64679U 25139R   25290.16668980  .00065120  00000+0  21954-2 0  9990
2 64679  53.1581  73.9423 0001028  95.5098   7.7014 15.30143447  5761
STARLINK-34502          
1 64680U 25139S   25289.90982985  .00027469  00000+0  93567-3 0  9990
2 64680  53.1578  74.6787 0001091  86.6240 273.4886 15.30216197 18272
