[{"OBJECT_NAME":"STARLINK-34555","OBJECT_ID":"2025-139B","EPOCH":"2025-10-16T16:18:00.852192","MEAN_MOTION":15.30225567,"ECCENTRICITY":0.000288,"INCLINATION":53.1593,"RA_OF_ASC_NODE":76.0859,"ARG_OF_PERICENTER":91.1815,"MEAN_ANOMALY":268.9516,"EPHEMERIS_TYPE":0,"CLASSIFICATION_TYPE":"U","NORAD_CAT_ID":64665,"ELEMENT_SET_NO":999,"REV_AT_EPOCH":1813,"BSTAR":0.0010743,"MEAN_MOTION_DOT":0.00031622,"MEAN_MOTION_DDOT":0},{"OBJECT_NAME":"STARLINK-34390","OBJECT_ID":"2025-139C","EPOCH":"2025-10-16T23:21:10.587744","MEAN_MOTION":15.30232617,"ECCENTRICITY":0.0001144,"INCLINATION":53.1585,"RA_OF_ASC_NODE":74.3651,"ARG_OF_PERICENTER":71.886,"MEAN_ANOMALY":288.2265,"EPHEMERIS_TYPE":0,"CLASSIFICATION_TYPE":"U","NORAD_CAT_ID":64666,"ELEMENT_SET_NO":999,"REV_AT_EPOCH":1834,"BSTAR":0.0014696,"MEAN_MOTION_DOT":0.00043466,"MEAN_MOTION_DDOT":0},{"OBJECT_NAME":"STARLINK-34382","OBJECT_ID":"2025-139D","EPOCH":"2025-10-16T16:40:48.935712","MEAN_MOTION":15.30264032,"ECCENTRICITY":0.0001965,"INCLINATION":53.1573,"RA_OF_ASC_NODE":76.1856,"ARG_OF_PERICENTER":87.8955,"MEAN_ANOMALY":272.2271,"EPHEMERIS_TYPE":0,"CLASSIFICATION_TYPE":"U","NORAD_CAT_ID":64667,"ELEMENT_SET_NO":999,"REV_AT_EPOCH":1823,"BSTAR":0.0017252,"MEAN_MOTION_DOT":0.0005119,"MEAN_MOTION_DDOT":0},{"OBJECT_NAME":"STARLINK-34395","OBJECT_ID":"2025-139E","EPOCH":"2025-10-16T16:27:08.019936","MEAN_MOTION":15.30228714,"ECCENTRICITY":0.0002496,"INCLINATION":53.1579,"RA_OF_ASC_NODE":76.1244,"ARG_OF_PERICENTER":93.9824,"MEAN_ANOMALY":266.1462,"EPHEMERIS_TYPE":0,"CLASSIFICATION_TYPE":"U","NORAD_CAT_ID":64668,"ELEMENT_SET_NO":999,"REV_AT_EPOCH":1823,"BSTAR":0.0013057,"MEAN_MOTION_DOT":0.00038549,"MEAN_MOTION_DDOT":0},{"OBJECT_NAME":"STARLINK-34394","OBJECT_ID":"2025-139F","EPOCH":"2025-10-16T03:41:01.896288","MEAN_MOTION":15.30203496,"ECCENTRICITY":0.00017578,"INCLINATION":53.1594,"RA_OF_ASC_NODE":78.4906,"ARG_OF_PERICENTER":89.2716,"MEAN_ANOMALY":270.8486,"EPHEMERIS_TYPE":0,"CLASSIFICATION_TYPE":"U","NORAD_CAT_ID":64669,"ELEMENT_SET_NO":999,"REV_AT_EPOCH":1815,"BSTAR":0.0011380755,"MEAN_MOTION_DOT":0.00033503,"MEAN_MOTION_DDOT":0},{"OBJECT_NAME":"STARLINK-34287","OBJECT_ID":"2025-139G","EPOCH":"2025-10-17T03:02:42.489888","MEAN_MOTION":15.30234236,"ECCENTRICITY":1.4e-6,"INCLINATION":53.1554,"RA_OF_ASC_NODE":73.9015,"ARG_OF_PERICENTER":293.4116,"MEAN_ANOMALY":66.6883,"EPHEMERIS_TYPE":0,"CLASSIFICATION_TYPE":"U","NORAD_CAT_ID":64670,"ELEMENT_SET_NO":999,"REV_AT_EPOCH":1830,"BSTAR":0.0019275,"MEAN_MOTION_DOT":0.00057229,"MEAN_MOTION_DDOT":0},{"OBJECT_NAME":"STARLINK-34365","OBJECT_ID":"2025-139H","EPOCH":"2025-10-15T20:13:33.461760","MEAN_MOTION":15.30213086,"ECCENTRICITY":0.00010049,"INCLINATION":53.1576,"RA_OF_ASC_NODE":80.1069,"ARG_OF_PERICENTER":78.3173,"MEAN_ANOMALY":281.7941,"EPHEMERIS_TYPE":0,"CLASSIFICATION_TYPE":"U","NORAD_CAT_ID":64671,"ELEMENT_SET_NO":999,"REV_AT_EPOCH":1816,"BSTAR":0.00080499615,"MEAN_MOTION_DOT":0.00023568,"MEAN_MOTION_DDOT":0},{"OBJECT_NAME":"STARLINK-34442","OBJECT_ID":"2025-139J","EPOCH":"2025-10-16T20:26:44.688768","MEAN_MOTION":15.30213405,"ECCENTRICITY":0.0001174,"INCLINATION":53.1586,"RA_OF_ASC_NODE":75.0315,"ARG_OF_PERICENTER":74.0493,"MEAN_ANOMALY":286.0637,"EPHEMERIS_TYPE":0,"CLASSIFICATION_TYPE":"U","NORAD_CAT_ID":64672,"ELEMENT_SET_NO":999,"REV_AT_EPOCH":1826,"BSTAR":0.0011463,"MEAN_MOTION_DOT":0.00033761,"MEAN_MOTION_DDOT":0},{"OBJECT_NAME":"STARLINK-34288","OBJECT_ID":"2025-139K","EPOCH":"2025-10-17T02:52:04.508832","MEAN_MOTION":15.30215822,"ECCENTRICITY":0.0001043,"INCLINATION":53.1594,"RA_OF_ASC_NODE":73.8565,"ARG_OF_PERICENTER":80.9103,"MEAN_ANOMALY":279.2015,"EPHEMERIS_TYPE":0,"CLASSIFICATION_TYPE":"U","NORAD_CAT_ID":64673,"ELEMENT_SET_NO":999,"REV_AT_EPOCH":1830,"BSTAR":0.0013704,"MEAN_MOTION_DOT":0.00040469,"MEAN_MOTION_DDOT":0},{"OBJECT_NAME":"STARLINK-34539","OBJECT_ID":"2025-139L","EPOCH":"2025-10-16T20:22:11.137728","MEAN_MOTION":15.30199289,"ECCENTRICITY":0.0001127,"INCLINATION":53.1583,"RA_OF_ASC_NODE":75.0108,"ARG_OF_PERICENTER":92.8694,"MEAN_ANOMALY":267.2436,"EPHEMERIS_TYPE":0,"CLASSIFICATION_TYPE":"U","NORAD_CAT_ID":64674,"ELEMENT_SET_NO":999,"REV_AT_EPOCH":1816,"BSTAR":0.00068689,"MEAN_MOTION_DOT":0.00020039,"MEAN_MOTION_DDOT":0},{"OBJECT_NAME":"STARLINK-34590","OBJECT_ID":"2025-139M","EPOCH":"2025-10-16T16:51:26.730144","MEAN_MOTION":15.30210539,"ECCENTRICITY":0.0001423,"INCLINATION":53.1578,"RA_OF_ASC_NODE":76.229,"ARG_OF_PERICENTER":91.7854,"MEAN_ANOMALY":268.331,"EPHEMERIS_TYPE":0,"CLASSIFICATION_TYPE":"U","NORAD_CAT_ID":64675,"ELEMENT_SET_NO":999,"REV_AT_EPOCH":1823,"BSTAR":0.0010171,"MEAN_MOTION_DOT":0.00029896,"MEAN_MOTION_DDOT":0},{"OBJECT_NAME":"STARLINK-34573","OBJECT_ID":"2025-139N","EPOCH":"2025-10-16T02:53:55.501728","MEAN_MOTION":15.30203449,"ECCENTRICITY":0.00019038,"INCLINATION":53.1578,"RA_OF_ASC_NODE":78.288,"ARG_OF_PERICENTER":86.5094,"MEAN_ANOMALY":273.6125,"EPHEMERIS_TYPE":0,"CLASSIFICATION_TYPE":"U","NORAD_CAT_ID":64676,"ELEMENT_SET_NO":999,"REV_AT_EPOCH":1815,"BSTAR":0.0014722264,"MEAN_MOTION_DOT":0.00043505,"MEAN_MOTION_DDOT":0},{"OBJECT_NAME":"STARLINK-34605","OBJECT_ID":"2025-139P","EPOCH":"2025-10-16T16:21:49.573728","MEAN_MOTION":15.39685404,"ECCENTRICITY":0.0001898,"INCLINATION":53.1601,"RA_OF_ASC_NODE":72.5574,"ARG_OF_PERICENTER":96.2786,"MEAN_ANOMALY":263.8435,"EPHEMERIS_TYPE":0,"CLASSIFICATION_TYPE":"U","NORAD_CAT_ID":64677,"ELEMENT_SET_NO":999,"REV_AT_EPOCH":1828,"BSTAR":0.0021795,"MEAN_MOTION_DOT":0.00087981,"MEAN_MOTION_DDOT":0},{"OBJECT_NAME":"STARLINK-34525","OBJECT_ID":"2025-139Q","EPOCH":"2025-10-16T16:43:50.811168","MEAN_MOTION":15.30196107,"ECCENTRICITY":0.0001746,"INCLINATION":53.1624,"RA_OF_ASC_NODE":76.1903,"ARG_OF_PERICENTER":87.1961,"MEAN_ANOMALY":272.9239,"EPHEMERIS_TYPE":0,"CLASSIFICATION_TYPE":"U","NORAD_CAT_ID":64678,"ELEMENT_SET_NO":999,"REV_AT_EPOCH":1823,"BSTAR":0.0018902,"MEAN_MOTION_DOT":0.00056041,"MEAN_MOTION_DDOT":0},{"OBJECT_NAME":"STARLINK-34489","OBJECT_ID":"2025-139R","EPOCH":"2025-10-17T04:00:01.998720","MEAN_MOTION":15.30143447,"ECCENTRICITY":0.0001028,"INCLINATION":53.1581,"RA_OF_ASC_NODE":73.9423,"ARG_OF_PERICENTER":95.5098,"MEAN_ANOMALY":7.7014,"EPHEMERIS_TYPE":0,"CLASSIFICATION_TYPE":"U","NORAD_CAT_ID":64679,"ELEMENT_SET_NO":999,"REV_AT_EPOCH":576,"BSTAR":0.0021954,"MEAN_MOTION_DOT":0.0006512,"MEAN_MOTION_DDOT":0},{"OBJECT_NAME":"STARLINK-34502","OBJECT_ID":"2025-139S","EPOCH":"2025-10-16T21:50:09.299040","MEAN_MOTION":15.30216197,"ECCENTRICITY":0.0001091,"INCLINATION":53.1578,"RA_OF_ASC_NODE":74.6787,"ARG_OF_PERICENTER":86.624,"MEAN_ANOMALY":273.4886,"EPHEMERIS_TYPE":0,"CLASSIFICATION_TYPE":"U","NORAD_CAT_ID":64680,"ELEMENT_SET_NO":999,"REV_AT_EPOCH":1827,"BSTAR":0.00093567,"MEAN_MOTION_DOT":0.00027469,"MEAN_MOTION_DDOT":0}]
